IRIDIUM 921             
1 24873U 97034E   24246.52688821  .00059612  00000+0  12084-2 0  9994
2 24873  86.3733 249.6277 0001445  81.9485 278.1936 15.46163417487106
IRIDIUM 26              
1 24903U 97043A   24246.51192584  .00001637  00000+0  55103-3 0  9997
2 24903  86.3939 231.2974 0002273  84.5296 275.6160 14.36539442415439
IRIDIUM 22              
1 24907U 97043E   24246.48814978  .00001494  00000+0  51399-3 0  9999
2 24907  86.3936 234.6049 0002343  90.2424 269.9041 14.35418043415497
DUMMY MASS 1            
1 24925U 97048A   24246.55004846  .00001256  00000+0  13922-3 0  9993
2 24925  86.3292 268.2305 0009222  87.5088 272.7192 14.86382772462393
DUMMY MASS 2            
1 24926U 97048B   24246.59928134  .00001237  00000+0  13788-3 0  9992
2 24926  86.3294 269.7657 0010031  95.7893 264.4475 14.86140012462185
IRIDIUM 29              
1 24944U 97051A   24246.60612320  .00001301  00000+0  44272-3 0  9999
2 24944  86.3899 264.4337 0002502  93.7264 266.4218 14.35866813411995
IRIDIUM 33              
1 24946U 97051C   24246.56685503  .00000877  00000+0  30433-3 0  9990
2 24946  86.3813 263.6971 0005980 306.8788  53.1859 14.34480218411509
IRIDIUM 28              
1 24948U 97051E   24246.55861677  .00001291  00000+0  43085-3 0  9997
2 24948  86.3905 262.1308 0001946  83.0432 277.0987 14.36822045412532
